{
  "type": "FeatureCollection",
  "generator": "overpass-turbo",
  "copyright": "The data included in this document is from www.openstreetmap.org. The data is made available under ODbL.",
  "timestamp": "2026-07-15T19:17:15Z",
  "features": [
    {
      "type": "Feature",
      "properties": {
        "@id": "way/52305027",
        "building": "yes",
        "roof:shape": "flat",
        "source": "cadastre-dgi-fr source : Direction Générale des Impôts - Cadastre. Mise à jour : 2010"
      },
      "geometry": {
        "type": "Polygon",
        "coordinates": [
          [
            [
              1.4143489,
              43.5806622
            ],
            [
              1.4143003,
              43.5805697
            ],
            [
              1.4142519,
              43.5804775
            ],
            [
              1.4144827,
              43.5804134
            ],
            [
              1.4145797,
              43.5805981
            ],
            [
              1.4143489,
              43.5806622
            ]
          ]
        ]
      },
      "id": "way/52305027"
    },
    {
      "type": "Feature",
      "properties": {
        "@id": "way/52305028",
        "building": "yes",
        "roof:shape": "flat",
        "source": "cadastre-dgi-fr source : Direction Générale des Impôts - Cadastre. Mise à jour : 2010"
      },
      "geometry": {
        "type": "Polygon",
        "coordinates": [
          [
            [
              1.4148524,
              43.5813749
            ],
            [
              1.4148876,
              43.5813655
            ],
            [
              1.4148898,
              43.5813697
            ],
            [
              1.4150383,
              43.5813298
            ],
            [
              1.4150591,
              43.5813707
            ],
            [
              1.4151367,
              43.5813499
            ],
            [
              1.4151582,
              43.5813921
            ],
            [
              1.4152401,
              43.5813701
            ],
            [
              1.415263,
              43.581415
            ],
            [
              1.4153426,
              43.5813936
            ],
            [
              1.4153724,
              43.5814522
            ],
            [
              1.4153184,
              43.5814667
            ],
            [
              1.4153302,
              43.58149
            ],
            [
              1.4152588,
              43.5815092
            ],
            [
              1.4152366,
              43.5814656
            ],
            [
              1.4151829,
              43.58148
            ],
            [
              1.4151689,
              43.5814525
            ],
            [
              1.4151443,
              43.5814591
            ],
            [
              1.4151327,
              43.5814362
            ],
            [
              1.4150738,
              43.581452
            ],
            [
              1.4150601,
              43.5814252
            ],
            [
              1.4150353,
              43.5814319
            ],
            [
              1.4150251,
              43.5814119
            ],
            [
              1.4149722,
              43.5814261
            ],
            [
              1.41496,
              43.581402
            ],
            [
              1.4149353,
              43.5814086
            ],
            [
              1.4149231,
              43.5813847
            ],
            [
              1.4148996,
              43.581391
            ],
            [
              1.4149129,
              43.5814171
            ],
            [
              1.4148785,
              43.5814263
            ],
            [
              1.4148524,
              43.5813749
            ]
          ]
        ]
      },
      "id": "way/52305028"
    },
    {
      "type": "Feature",
      "properties": {
        "@id": "way/52305029",
        "building": "apartments",
        "building:levels": "4",
        "source": "cadastre-dgi-fr source : Direction Générale des Impôts - Cadastre. Mise à jour : 2010"
      },
      "geometry": {
        "type": "Polygon",
        "coordinates": [
          [
            [
              1.4141996,
              43.5817295
            ],
            [
              1.4141463,
              43.5816287
            ],
            [
              1.4145207,
              43.581524
            ],
            [
              1.414574,
              43.5816248
            ],
            [
              1.4141996,
              43.5817295
            ]
          ]
        ]
      },
      "id": "way/52305029"
    },
    {
      "type": "Feature",
      "properties": {
        "@id": "way/52305030",
        "building": "apartments",
        "building:levels": "4",
        "source": "cadastre-dgi-fr source : Direction Générale des Impôts - Cadastre. Mise à jour : 2010"
      },
      "geometry": {
        "type": "Polygon",
        "coordinates": [
          [
            [
              1.4144611,
              43.5814629
            ],
            [
              1.4142881,
              43.5815109
            ],
            [
              1.4142622,
              43.5814618
            ],
            [
              1.4142523,
              43.5814645
            ],
            [
              1.4142194,
              43.5814019
            ],
            [
              1.4142284,
              43.5813994
            ],
            [
              1.4141161,
              43.5811859
            ],
            [
              1.4141061,
              43.5811668
            ],
            [
              1.4140974,
              43.5811692
            ],
            [
              1.4140646,
              43.5811068
            ],
            [
              1.4140738,
              43.5811043
            ],
            [
              1.4140478,
              43.5810548
            ],
            [
              1.4142213,
              43.5810066
            ],
            [
              1.4144611,
              43.5814629
            ]
          ]
        ]
      },
      "id": "way/52305030"
    },
    {
      "type": "Feature",
      "properties": {
        "@id": "way/52305033",
        "building": "yes",
        "source": "cadastre-dgi-fr source : Direction Générale des Impôts - Cadastre. Mise à jour : 2010"
      },
      "geometry": {
        "type": "Polygon",
        "coordinates": [
          [
            [
              1.413447,
              43.5811459
            ],
            [
              1.4132163,
              43.5808918
            ],
            [
              1.4132264,
              43.5808497
            ],
            [
              1.413975,
              43.5806405
            ],
            [
              1.4140666,
              43.5808218
            ],
            [
              1.4140934,
              43.5808154
            ],
            [
              1.4141637,
              43.580945
            ],
            [
              1.413447,
              43.5811459
            ]
          ]
        ]
      },
      "id": "way/52305033"
    },
    {
      "type": "Feature",
      "properties": {
        "@id": "way/52305034",
        "building": "yes",
        "roof:shape": "flat",
        "source": "cadastre-dgi-fr source : Direction Générale des Impôts - Cadastre. Mise à jour : 2010"
      },
      "geometry": {
        "type": "Polygon",
        "coordinates": [
          [
            [
              1.4130394,
              43.5806934
            ],
            [
              1.4128796,
              43.5805133
            ],
            [
              1.4131968,
              43.5804228
            ],
            [
              1.4133001,
              43.5806175
            ],
            [
              1.4130394,
              43.5806934
            ]
          ]
        ]
      },
      "id": "way/52305034"
    },
    {
      "type": "Feature",
      "properties": {
        "@id": "way/52305035",
        "building": "yes",
        "roof:shape": "flat",
        "source": "cadastre-dgi-fr source : Direction Générale des Impôts - Cadastre. Mise à jour : 2010"
      },
      "geometry": {
        "type": "Polygon",
        "coordinates": [
          [
            [
              1.4133883,
              43.5803363
            ],
            [
              1.4134267,
              43.5803258
            ],
            [
              1.4134314,
              43.5803349
            ],
            [
              1.4134626,
              43.5803264
            ],
            [
              1.4134707,
              43.5803419
            ],
            [
              1.4135039,
              43.5803327
            ],
            [
              1.413526,
              43.5803752
            ],
            [
              1.413561,
              43.5803655
            ],
            [
              1.4135687,
              43.5803803
            ],
            [
              1.4136083,
              43.5803695
            ],
            [
              1.4136306,
              43.5804124
            ],
            [
              1.4136621,
              43.5804038
            ],
            [
              1.4136698,
              43.5804187
            ],
            [
              1.4137076,
              43.5804083
            ],
            [
              1.4137309,
              43.5804531
            ],
            [
              1.4137644,
              43.5804439
            ],
            [
              1.4137732,
              43.5804608
            ],
            [
              1.4138021,
              43.5804529
            ],
            [
              1.4138365,
              43.5805189
            ],
            [
              1.4138072,
              43.580527
            ],
            [
              1.4138106,
              43.5805334
            ],
            [
              1.4137388,
              43.5805532
            ],
            [
              1.4137077,
              43.5804935
            ],
            [
              1.4136737,
              43.5805029
            ],
            [
              1.4136408,
              43.5805119
            ],
            [
              1.4136108,
              43.5804542
            ],
            [
              1.4135755,
              43.5804639
            ],
            [
              1.4135412,
              43.5804733
            ],
            [
              1.4135104,
              43.5804139
            ],
            [
              1.4134745,
              43.5804238
            ],
            [
              1.4134389,
              43.5804336
            ],
            [
              1.4134119,
              43.5803816
            ],
            [
              1.4133883,
              43.5803363
            ]
          ]
        ]
      },
      "id": "way/52305035"
    },
    {
      "type": "Feature",
      "properties": {
        "@id": "way/52305036",
        "building": "yes",
        "roof:shape": "flat",
        "source": "cadastre-dgi-fr source : Direction Générale des Impôts - Cadastre. Mise à jour : 2010"
      },
      "geometry": {
        "type": "Polygon",
        "coordinates": [
          [
            [
              1.4138307,
              43.5804416
            ],
            [
              1.4138147,
              43.5804088
            ],
            [
              1.413847,
              43.5804009
            ],
            [
              1.4138376,
              43.5803822
            ],
            [
              1.4138666,
              43.5803746
            ],
            [
              1.4138454,
              43.5803346
            ],
            [
              1.4138785,
              43.5803263
            ],
            [
              1.4138679,
              43.5803074
            ],
            [
              1.4139018,
              43.580298
            ],
            [
              1.4138795,
              43.5802562
            ],
            [
              1.4139147,
              43.5802474
            ],
            [
              1.4139061,
              43.5802303
            ],
            [
              1.4139354,
              43.5802229
            ],
            [
              1.4139304,
              43.5802118
            ],
            [
              1.4139643,
              43.5802036
            ],
            [
              1.4139451,
              43.5801675
            ],
            [
              1.4140419,
              43.5801411
            ],
            [
              1.4140575,
              43.5801714
            ],
            [
              1.4140799,
              43.5801658
            ],
            [
              1.414092,
              43.5801883
            ],
            [
              1.4141764,
              43.5801653
            ],
            [
              1.414201,
              43.5802125
            ],
            [
              1.4142838,
              43.5801892
            ],
            [
              1.4143096,
              43.5802388
            ],
            [
              1.4143204,
              43.580236
            ],
            [
              1.4143314,
              43.5802561
            ],
            [
              1.4142638,
              43.5802751
            ],
            [
              1.4141956,
              43.5802943
            ],
            [
              1.4141722,
              43.580248
            ],
            [
              1.4141334,
              43.5802594
            ],
            [
              1.4140923,
              43.5802714
            ],
            [
              1.4140669,
              43.5802223
            ],
            [
              1.4140266,
              43.5802334
            ],
            [
              1.413985,
              43.5802448
            ],
            [
              1.4139995,
              43.5802731
            ],
            [
              1.4140151,
              43.5803034
            ],
            [
              1.413953,
              43.5803211
            ],
            [
              1.4139683,
              43.5803491
            ],
            [
              1.4139836,
              43.5803771
            ],
            [
              1.4139157,
              43.5803967
            ],
            [
              1.4139305,
              43.5804251
            ],
            [
              1.4139462,
              43.5804554
            ],
            [
              1.4138862,
              43.5804719
            ],
            [
              1.4138655,
              43.5804334
            ],
            [
              1.4138307,
              43.5804416
            ]
          ]
        ]
      },
      "id": "way/52305036"
    },
    {
      "type": "Feature",
      "properties": {
        "@id": "way/52305039",
        "building": "retail",
        "building:levels": "2",
        "source": "cadastre-dgi-fr source : Direction Générale des Impôts - Cadastre. Mise à jour : 2010"
      },
      "geometry": {
        "type": "Polygon",
        "coordinates": [
          [
            [
              1.4141031,
              43.5819946
            ],
            [
              1.4140655,
              43.581942
            ],
            [
              1.4140262,
              43.5818871
            ],
            [
              1.41399,
              43.5818366
            ],
            [
              1.4139601,
              43.5817948
            ],
            [
              1.4141112,
              43.5817523
            ],
            [
              1.4142209,
              43.5819615
            ],
            [
              1.4141031,
              43.5819946
            ]
          ]
        ]
      },
      "id": "way/52305039"
    },
    {
      "type": "Feature",
      "properties": {
        "@id": "way/52305044",
        "building": "yes",
        "roof:shape": "flat",
        "source": "cadastre-dgi-fr source : Direction Générale des Impôts - Cadastre. Mise à jour : 2010"
      },
      "geometry": {
        "type": "Polygon",
        "coordinates": [
          [
            [
              1.414924,
              43.5805848
            ],
            [
              1.4148784,
              43.5804988
            ],
            [
              1.4148279,
              43.580404
            ],
            [
              1.4150598,
              43.5803388
            ],
            [
              1.4151559,
              43.5805196
            ],
            [
              1.414924,
              43.5805848
            ]
          ]
        ]
      },
      "id": "way/52305044"
    },
    {
      "type": "Feature",
      "properties": {
        "@id": "way/52305047",
        "building": "yes",
        "roof:shape": "flat",
        "source": "cadastre-dgi-fr source : Direction Générale des Impôts - Cadastre. Mise à jour : 2010"
      },
      "geometry": {
        "type": "Polygon",
        "coordinates": [
          [
            [
              1.4150905,
              43.5807429
            ],
            [
              1.4151853,
              43.5809254
            ],
            [
              1.4150137,
              43.5809726
            ],
            [
              1.4150671,
              43.5810754
            ],
            [
              1.4148074,
              43.5811467
            ],
            [
              1.4148851,
              43.5812962
            ],
            [
              1.4146556,
              43.5813592
            ],
            [
              1.4145606,
              43.5811763
            ],
            [
              1.4147934,
              43.5811123
            ],
            [
              1.4147578,
              43.5810437
            ],
            [
              1.4149501,
              43.5809909
            ],
            [
              1.4148549,
              43.5808076
            ],
            [
              1.4150905,
              43.5807429
            ]
          ]
        ]
      },
      "id": "way/52305047"
    },
    {
      "type": "Feature",
      "properties": {
        "@id": "way/52305059",
        "building": "yes",
        "roof:shape": "flat",
        "source": "cadastre-dgi-fr source : Direction Générale des Impôts - Cadastre. Mise à jour : 2010"
      },
      "geometry": {
        "type": "Polygon",
        "coordinates": [
          [
            [
              1.4146783,
              43.5814996
            ],
            [
              1.414709,
              43.5814913
            ],
            [
              1.4147139,
              43.581501
            ],
            [
              1.4147483,
              43.5814917
            ],
            [
              1.4147576,
              43.5815099
            ],
            [
              1.4147854,
              43.5815024
            ],
            [
              1.4147957,
              43.5815226
            ],
            [
              1.4148659,
              43.5815036
            ],
            [
              1.4149043,
              43.5815788
            ],
            [
              1.4149363,
              43.5815702
            ],
            [
              1.4149456,
              43.5815885
            ],
            [
              1.4149772,
              43.58158
            ],
            [
              1.414994,
              43.5816129
            ],
            [
              1.4149635,
              43.5816211
            ],
            [
              1.4149832,
              43.5816597
            ],
            [
              1.4149197,
              43.5816768
            ],
            [
              1.4148899,
              43.5816185
            ],
            [
              1.4148245,
              43.5816361
            ],
            [
              1.4147955,
              43.5815793
            ],
            [
              1.4147282,
              43.5815974
            ],
            [
              1.4146783,
              43.5814996
            ]
          ]
        ]
      },
      "id": "way/52305059"
    },
    {
      "type": "Feature",
      "properties": {
        "@id": "way/52305061",
        "building": "yes",
        "source": "cadastre-dgi-fr source : Direction Générale des Impôts - Cadastre. Mise à jour : 2010"
      },
      "geometry": {
        "type": "Polygon",
        "coordinates": [
          [
            [
              1.4151326,
              43.5819184
            ],
            [
              1.4151471,
              43.5819451
            ],
            [
              1.4149954,
              43.5819886
            ],
            [
              1.4149333,
              43.581874
            ],
            [
              1.4149654,
              43.5818649
            ],
            [
              1.4149496,
              43.5818358
            ],
            [
              1.4148684,
              43.581859
            ],
            [
              1.4148264,
              43.5817816
            ],
            [
              1.4149451,
              43.5817476
            ],
            [
              1.4149405,
              43.5817391
            ],
            [
              1.4150245,
              43.581715
            ],
            [
              1.4150329,
              43.5817305
            ],
            [
              1.4151141,
              43.5817073
            ],
            [
              1.4151192,
              43.5817168
            ],
            [
              1.4152871,
              43.5816687
            ],
            [
              1.4153364,
              43.5817596
            ],
            [
              1.4153897,
              43.5817444
            ],
            [
              1.4154314,
              43.5818214
            ],
            [
              1.4152522,
              43.5818727
            ],
            [
              1.4152575,
              43.5818826
            ],
            [
              1.4151326,
              43.5819184
            ]
          ]
        ]
      },
      "id": "way/52305061"
    },
    {
      "type": "Feature",
      "properties": {
        "@id": "way/58455962",
        "building": "apartments",
        "building:levels": "4",
        "roof:shape": "flat",
        "source": "cadastre-dgi-fr source : Direction Générale des Impôts - Cadastre. Mise à jour : 2010"
      },
      "geometry": {
        "type": "Polygon",
        "coordinates": [
          [
            [
              1.412287,
              43.580381
            ],
            [
              1.4122938,
              43.5803888
            ],
            [
              1.4123688,
              43.5803536
            ],
            [
              1.4125374,
              43.5805438
            ],
            [
              1.4125468,
              43.5805544
            ],
            [
              1.4124725,
              43.5805892
            ],
            [
              1.4124794,
              43.5805969
            ],
            [
              1.4124133,
              43.5806279
            ],
            [
              1.4122797,
              43.5804771
            ],
            [
              1.4122697,
              43.5804818
            ],
            [
              1.412251,
              43.5804607
            ],
            [
              1.4122609,
              43.5804561
            ],
            [
              1.4122218,
              43.5804126
            ],
            [
              1.412287,
              43.580381
            ]
          ]
        ]
      },
      "id": "way/58455962"
    },
    {
      "type": "Feature",
      "properties": {
        "@id": "way/58455968",
        "building": "yes",
        "roof:shape": "flat",
        "source": "cadastre-dgi-fr source : Direction Générale des Impôts - Cadastre. Mise à jour : 2010"
      },
      "geometry": {
        "type": "Polygon",
        "coordinates": [
          [
            [
              1.413045,
              43.5811187
            ],
            [
              1.4131665,
              43.5812591
            ],
            [
              1.4131601,
              43.5812859
            ],
            [
              1.4130739,
              43.5813276
            ],
            [
              1.4130168,
              43.5813248
            ],
            [
              1.4129791,
              43.5812835
            ],
            [
              1.4129906,
              43.5812785
            ],
            [
              1.4129749,
              43.5812606
            ],
            [
              1.4129547,
              43.5812695
            ],
            [
              1.4128855,
              43.5811913
            ],
            [
              1.4128972,
              43.5811627
            ],
            [
              1.4130047,
              43.5811128
            ],
            [
              1.413045,
              43.5811187
            ]
          ]
        ]
      },
      "id": "way/58455968"
    },
    {
      "type": "Feature",
      "properties": {
        "@id": "way/58455975",
        "building": "yes",
        "roof:shape": "flat",
        "source": "cadastre-dgi-fr source : Direction Générale des Impôts - Cadastre. Mise à jour : 2010"
      },
      "geometry": {
        "type": "Polygon",
        "coordinates": [
          [
            [
              1.412253,
              43.5816475
            ],
            [
              1.412184,
              43.5815556
            ],
            [
              1.4126652,
              43.5813655
            ],
            [
              1.4127331,
              43.5814558
            ],
            [
              1.412253,
              43.5816475
            ]
          ]
        ]
      },
      "id": "way/58455975"
    },
    {
      "type": "Feature",
      "properties": {
        "@id": "way/58455976",
        "building": "yes",
        "roof:shape": "flat",
        "source": "cadastre-dgi-fr source : Direction Générale des Impôts - Cadastre. Mise à jour : 2010"
      },
      "geometry": {
        "type": "Polygon",
        "coordinates": [
          [
            [
              1.4117297,
              43.5805758
            ],
            [
              1.4117777,
              43.5805532
            ],
            [
              1.4117735,
              43.5805486
            ],
            [
              1.4118542,
              43.5805106
            ],
            [
              1.4118646,
              43.580522
            ],
            [
              1.4118732,
              43.5805178
            ],
            [
              1.4119413,
              43.5805929
            ],
            [
              1.4119462,
              43.5805901
            ],
            [
              1.4119844,
              43.5806326
            ],
            [
              1.4119933,
              43.5806282
            ],
            [
              1.4120117,
              43.5806476
            ],
            [
              1.412002,
              43.5806522
            ],
            [
              1.4120239,
              43.5806765
            ],
            [
              1.4120175,
              43.5806793
            ],
            [
              1.4120939,
              43.580765
            ],
            [
              1.4120853,
              43.5807691
            ],
            [
              1.4120953,
              43.5807806
            ],
            [
              1.4120144,
              43.5808192
            ],
            [
              1.4120101,
              43.5808148
            ],
            [
              1.4119627,
              43.5808369
            ],
            [
              1.4117297,
              43.5805758
            ]
          ]
        ]
      },
      "id": "way/58455976"
    },
    {
      "type": "Feature",
      "properties": {
        "@id": "way/58455979",
        "building": "yes",
        "source": "cadastre-dgi-fr source : Direction Générale des Impôts - Cadastre. Mise à jour : 2010"
      },
      "geometry": {
        "type": "Polygon",
        "coordinates": [
          [
            [
              1.4128169,
              43.5811574
            ],
            [
              1.4128481,
              43.5812006
            ],
            [
              1.4121572,
              43.581471
            ],
            [
              1.4121268,
              43.5814298
            ],
            [
              1.4128169,
              43.5811574
            ]
          ]
        ]
      },
      "id": "way/58455979"
    },
    {
      "type": "Feature",
      "properties": {
        "@id": "way/58455983",
        "building": "apartments",
        "building:levels": "5",
        "roof:shape": "flat",
        "source": "cadastre-dgi-fr source : Direction Générale des Impôts - Cadastre. Mise à jour : 2010"
      },
      "geometry": {
        "type": "Polygon",
        "coordinates": [
          [
            [
              1.4122804,
              43.5808787
            ],
            [
              1.4124329,
              43.5808055
            ],
            [
              1.412564,
              43.5809478
            ],
            [
              1.4127147,
              43.5808776
            ],
            [
              1.4128307,
              43.5810026
            ],
            [
              1.412675,
              43.5810764
            ],
            [
              1.412605,
              43.5810016
            ],
            [
              1.4124541,
              43.5810717
            ],
            [
              1.4125232,
              43.5811479
            ],
            [
              1.4123708,
              43.5812212
            ],
            [
              1.4122561,
              43.5810933
            ],
            [
              1.4124087,
              43.5810209
            ],
            [
              1.4122804,
              43.5808787
            ]
          ]
        ]
      },
      "id": "way/58455983"
    },
    {
      "type": "Feature",
      "properties": {
        "@id": "way/132049381",
        "amenity": "place_of_worship",
        "building": "church",
        "denomination": "catholic",
        "name": "Église du Saint-Esprit",
        "ref:FR:CEF": "31555_19",
        "religion": "christian",
        "source": "cadastre-dgi-fr source : Direction Générale des Impôts - Cadastre. Mise à jour : 2011",
        "wikidata": "Q38386749"
      },
      "geometry": {
        "type": "Polygon",
        "coordinates": [
          [
            [
              1.4128391,
              43.5819392
            ],
            [
              1.4127884,
              43.5818762
            ],
            [
              1.4127358,
              43.581805
            ],
            [
              1.4128588,
              43.5817578
            ],
            [
              1.4128303,
              43.5817178
            ],
            [
              1.4131886,
              43.5815771
            ],
            [
              1.4132186,
              43.5816171
            ],
            [
              1.4132782,
              43.5815937
            ],
            [
              1.4133737,
              43.5817303
            ],
            [
              1.4131987,
              43.5817982
            ],
            [
              1.4132286,
              43.581841
            ],
            [
              1.4131079,
              43.5818893
            ],
            [
              1.4130742,
              43.5818471
            ],
            [
              1.4128391,
              43.5819392
            ]
          ]
        ]
      },
      "id": "way/132049381"
    },
    {
      "type": "Feature",
      "properties": {
        "@id": "way/375231801",
        "building": "yes"
      },
      "geometry": {
        "type": "Polygon",
        "coordinates": [
          [
            [
              1.4119398,
              43.5809672
            ],
            [
              1.4120262,
              43.5810842
            ],
            [
              1.4118564,
              43.58115
            ],
            [
              1.41177,
              43.5810331
            ],
            [
              1.4119398,
              43.5809672
            ]
          ]
        ]
      },
      "id": "way/375231801"
    },
    {
      "type": "Feature",
      "properties": {
        "@id": "way/375231805",
        "building": "yes"
      },
      "geometry": {
        "type": "Polygon",
        "coordinates": [
          [
            [
              1.4123262,
              43.5812554
            ],
            [
              1.4123673,
              43.5813
            ],
            [
              1.412299,
              43.581333
            ],
            [
              1.4122579,
              43.5812884
            ],
            [
              1.4123262,
              43.5812554
            ]
          ]
        ]
      },
      "id": "way/375231805"
    },
    {
      "type": "Feature",
      "properties": {
        "@id": "way/375231819",
        "building": "yes"
      },
      "geometry": {
        "type": "Polygon",
        "coordinates": [
          [
            [
              1.4121505,
              43.5812535
            ],
            [
              1.4121929,
              43.5813105
            ],
            [
              1.412025,
              43.581376
            ],
            [
              1.4119898,
              43.5813287
            ],
            [
              1.4120621,
              43.5813005
            ],
            [
              1.412073,
              43.5813152
            ],
            [
              1.4121028,
              43.5813035
            ],
            [
              1.4120847,
              43.5812792
            ],
            [
              1.4121505,
              43.5812535
            ]
          ]
        ]
      },
      "id": "way/375231819"
    },
    {
      "type": "Feature",
      "properties": {
        "@id": "way/375231821",
        "building": "yes"
      },
      "geometry": {
        "type": "Polygon",
        "coordinates": [
          [
            [
              1.4120382,
              43.5811033
            ],
            [
              1.4120806,
              43.5811603
            ],
            [
              1.4119127,
              43.5812258
            ],
            [
              1.4118775,
              43.5811785
            ],
            [
              1.4119498,
              43.5811503
            ],
            [
              1.4119607,
              43.581165
            ],
            [
              1.4119905,
              43.5811534
            ],
            [
              1.4119724,
              43.581129
            ],
            [
              1.4120382,
              43.5811033
            ]
          ]
        ]
      },
      "id": "way/375231821"
    },
    {
      "type": "Feature",
      "properties": {
        "@id": "way/375231822",
        "building": "yes"
      },
      "geometry": {
        "type": "Polygon",
        "coordinates": [
          [
            [
              1.4120939,
              43.5811783
            ],
            [
              1.4121363,
              43.5812353
            ],
            [
              1.4119684,
              43.5813008
            ],
            [
              1.4119332,
              43.5812535
            ],
            [
              1.4120055,
              43.5812253
            ],
            [
              1.4120164,
              43.58124
            ],
            [
              1.4120462,
              43.5812284
            ],
            [
              1.4120281,
              43.581204
            ],
            [
              1.4120939,
              43.5811783
            ]
          ]
        ]
      },
      "id": "way/375231822"
    }
  ]
}