{
"type": "FeatureCollection",
"name": "highway residential_bagatelle",
"crs": { "type": "name", "properties": { "name": "urn:ogc:def:crs:OGC:1.3:CRS84" } },
"features": [
{ "type": "Feature", "properties": { "full_id": "w19606019", "osm_id": "19606019", "osm_type": "way", "highway": "residential", "sidewalk:both": null, "cycleway:both": null, "source:name:oc": null, "lanes": null, "oneway:bicycle": null, "oneway": null, "lit": null, "name:oc": null, "source:maxspeed": null, "junction": null, "surface": "asphalt", "political_division": "canton", "name": "Rue de la Faourette", "maxspeed:type": "FR:zone30", "maxspeed": "30", "boundary": "political" }, "geometry": { "type": "LineString", "coordinates": [ [ 1.4183719, 43.5823408 ], [ 1.4183421, 43.5823251 ], [ 1.4183099, 43.5822986 ], [ 1.4180435, 43.5818056 ], [ 1.4179374, 43.5815991 ], [ 1.4178987, 43.5815311 ], [ 1.4178636, 43.5814779 ], [ 1.4178506, 43.5814582 ], [ 1.4178117, 43.5813987 ], [ 1.4177838, 43.5813443 ], [ 1.41773, 43.5812419 ], [ 1.4176776, 43.5811411 ], [ 1.4176402, 43.5810694 ], [ 1.417584, 43.5809614 ], [ 1.4175231, 43.5808444 ], [ 1.41747, 43.5807424 ], [ 1.4174457, 43.5807161 ], [ 1.417432, 43.5807013 ], [ 1.417412, 43.5806884 ], [ 1.4173726, 43.5806726 ], [ 1.4172919, 43.5806461 ], [ 1.4168864, 43.5805127 ], [ 1.4168492, 43.5804943 ], [ 1.4168276, 43.5804673 ], [ 1.4167321, 43.5802825 ], [ 1.4165441, 43.5799188 ], [ 1.4165367, 43.579879 ], [ 1.4165438, 43.5798552 ], [ 1.4165646, 43.5798355 ], [ 1.4165961, 43.579821 ], [ 1.4172765, 43.5796302 ], [ 1.4173829, 43.5796006 ], [ 1.4177924, 43.5794898 ], [ 1.4179688, 43.5794407 ], [ 1.4180345, 43.5794219 ], [ 1.4188203, 43.579197 ], [ 1.4188878, 43.5791777 ], [ 1.4198839, 43.578898 ], [ 1.4200357, 43.5788546 ], [ 1.4202662, 43.5787801 ] ] } },
{ "type": "Feature", "properties": { "full_id": "w21614893", "osm_id": "21614893", "osm_type": "way", "highway": "residential", "sidewalk:both": null, "cycleway:both": null, "source:name:oc": null, "lanes": null, "oneway:bicycle": null, "oneway": null, "lit": null, "name:oc": null, "source:maxspeed": "https://data.toulouse-metropole.fr/explore/dataset/zones-30/", "junction": "roundabout", "surface": "asphalt", "political_division": null, "name": null, "maxspeed:type": null, "maxspeed": "30", "boundary": null }, "geometry": { "type": "LineString", "coordinates": [ [ 1.4169248, 43.5788308 ], [ 1.4168971, 43.5788395 ], [ 1.416867, 43.5788391 ], [ 1.4168398, 43.5788299 ], [ 1.4168237, 43.5788175 ], [ 1.416814, 43.5788021 ], [ 1.4168131, 43.5787777 ], [ 1.4168278, 43.5787556 ], [ 1.4168548, 43.5787409 ], [ 1.4168881, 43.5787368 ], [ 1.4169161, 43.5787424 ], [ 1.4169387, 43.5787557 ], [ 1.4169521, 43.5787744 ], [ 1.4169542, 43.5787955 ], [ 1.4169445, 43.5788154 ], [ 1.4169248, 43.5788308 ] ] } },
{ "type": "Feature", "properties": { "full_id": "w21614896", "osm_id": "21614896", "osm_type": "way", "highway": "residential", "sidewalk:both": null, "cycleway:both": null, "source:name:oc": null, "lanes": null, "oneway:bicycle": null, "oneway": null, "lit": null, "name:oc": null, "source:maxspeed": "https://data.toulouse-metropole.fr/explore/dataset/zones-30/", "junction": null, "surface": "asphalt", "political_division": null, "name": "Rue Paul Lambert", "maxspeed:type": null, "maxspeed": "30", "boundary": null }, "geometry": { "type": "LineString", "coordinates": [ [ 1.4173829, 43.5796006 ], [ 1.4173304, 43.5795165 ], [ 1.417014, 43.57893 ], [ 1.4169584, 43.5788735 ], [ 1.4169248, 43.5788308 ] ] } },
{ "type": "Feature", "properties": { "full_id": "w21614900", "osm_id": "21614900", "osm_type": "way", "highway": "residential", "sidewalk:both": null, "cycleway:both": null, "source:name:oc": null, "lanes": null, "oneway:bicycle": null, "oneway": null, "lit": null, "name:oc": null, "source:maxspeed": "https://data.toulouse-metropole.fr/explore/dataset/zones-30/", "junction": null, "surface": "asphalt", "political_division": null, "name": "Rue de l'Ukraine", "maxspeed:type": null, "maxspeed": "30", "boundary": null }, "geometry": { "type": "LineString", "coordinates": [ [ 1.416814, 43.5788021 ], [ 1.4167563, 43.5788068 ], [ 1.4166081, 43.5788356 ], [ 1.4158388, 43.5790431 ], [ 1.4157982, 43.5790551 ], [ 1.4157345, 43.579074 ] ] } },
{ "type": "Feature", "properties": { "full_id": "w22723822", "osm_id": "22723822", "osm_type": "way", "highway": "residential", "sidewalk:both": null, "cycleway:both": null, "source:name:oc": null, "lanes": null, "oneway:bicycle": null, "oneway": null, "lit": null, "name:oc": null, "source:maxspeed": "https://data.toulouse-metropole.fr/explore/dataset/zones-30/", "junction": "roundabout", "surface": "asphalt", "political_division": null, "name": "Rue de l'Ukraine", "maxspeed:type": null, "maxspeed": "30", "boundary": null }, "geometry": { "type": "LineString", "coordinates": [ [ 1.4155804, 43.5791091 ], [ 1.4155841, 43.5790796 ], [ 1.4156298, 43.579045 ], [ 1.4156846, 43.5790431 ], [ 1.4157131, 43.5790542 ], [ 1.4157345, 43.579074 ], [ 1.4157414, 43.5791091 ], [ 1.4157293, 43.5791319 ], [ 1.4156991, 43.5791519 ], [ 1.4156558, 43.5791586 ], [ 1.4156165, 43.5791492 ], [ 1.4155804, 43.5791091 ] ] } },
{ "type": "Feature", "properties": { "full_id": "w22723823", "osm_id": "22723823", "osm_type": "way", "highway": "residential", "sidewalk:both": null, "cycleway:both": null, "source:name:oc": null, "lanes": null, "oneway:bicycle": null, "oneway": null, "lit": null, "name:oc": "Carrièra de l'Ucraïna", "source:maxspeed": "https://data.toulouse-metropole.fr/explore/dataset/zones-30/", "junction": null, "surface": "asphalt", "political_division": null, "name": "Rue de l'Ukraine", "maxspeed:type": null, "maxspeed": "30", "boundary": null }, "geometry": { "type": "LineString", "coordinates": [ [ 1.4155804, 43.5791091 ], [ 1.4155255, 43.5791317 ], [ 1.4153869, 43.5792111 ], [ 1.4152001, 43.5792785 ], [ 1.4151126, 43.5793097 ], [ 1.4150525, 43.5793279 ], [ 1.4150254, 43.5793361 ], [ 1.4149138, 43.5793597 ], [ 1.4147597, 43.5793866 ], [ 1.4146236, 43.5793952 ], [ 1.4145804, 43.5793986 ], [ 1.4145091, 43.5794041 ], [ 1.4143759, 43.5794152 ], [ 1.4143508, 43.5794173 ], [ 1.4141905, 43.5794513 ], [ 1.4140081, 43.5795078 ], [ 1.4138767, 43.5795629 ], [ 1.4138262, 43.5795821 ] ] } },
{ "type": "Feature", "properties": { "full_id": "w22779582", "osm_id": "22779582", "osm_type": "way", "highway": "residential", "sidewalk:both": null, "cycleway:both": null, "source:name:oc": null, "lanes": null, "oneway:bicycle": null, "oneway": null, "lit": null, "name:oc": null, "source:maxspeed": "https://data.toulouse-metropole.fr/explore/dataset/zones-30/", "junction": null, "surface": null, "political_division": null, "name": "Rue Félix Mathieu", "maxspeed:type": null, "maxspeed": "30", "boundary": null }, "geometry": { "type": "LineString", "coordinates": [ [ 1.4130046, 43.5798526 ], [ 1.4130161, 43.5798768 ], [ 1.4130353, 43.5799086 ], [ 1.4132321, 43.5802428 ], [ 1.4132813, 43.5803325 ], [ 1.4134408, 43.5806531 ], [ 1.4134545, 43.5806807 ], [ 1.4134635, 43.5806987 ] ] } },
{ "type": "Feature", "properties": { "full_id": "w22779584", "osm_id": "22779584", "osm_type": "way", "highway": "residential", "sidewalk:both": null, "cycleway:both": null, "source:name:oc": null, "lanes": null, "oneway:bicycle": null, "oneway": null, "lit": null, "name:oc": null, "source:maxspeed": "https://data.toulouse-metropole.fr/explore/dataset/zones-30/", "junction": null, "surface": null, "political_division": null, "name": "Rue Jules Amilhau", "maxspeed:type": null, "maxspeed": "30", "boundary": null }, "geometry": { "type": "LineString", "coordinates": [ [ 1.412985, 43.5808562 ], [ 1.4130366, 43.5808333 ], [ 1.4130526, 43.5808257 ], [ 1.4130877, 43.5808101 ], [ 1.4131214, 43.5807946 ], [ 1.4134635, 43.5806987 ], [ 1.4138955, 43.5805764 ], [ 1.4139407, 43.5805691 ], [ 1.413998, 43.5805703 ], [ 1.4140538, 43.580582 ], [ 1.4140936, 43.5806076 ], [ 1.4141287, 43.5806409 ], [ 1.4142899, 43.5809477 ], [ 1.4142977, 43.5809637 ], [ 1.4145465, 43.5814302 ], [ 1.4145725, 43.58148 ], [ 1.4146622, 43.5816521 ], [ 1.4147707, 43.5818603 ], [ 1.4149278, 43.5821438 ], [ 1.4149543, 43.5821974 ], [ 1.4149992, 43.5822594 ] ] } },
{ "type": "Feature", "properties": { "full_id": "w22779585", "osm_id": "22779585", "osm_type": "way", "highway": "residential", "sidewalk:both": null, "cycleway:both": null, "source:name:oc": null, "lanes": null, "oneway:bicycle": null, "oneway": null, "lit": null, "name:oc": null, "source:maxspeed": null, "junction": null, "surface": null, "political_division": null, "name": "Impasse Jules Amilhau", "maxspeed:type": null, "maxspeed": "30", "boundary": null }, "geometry": { "type": "LineString", "coordinates": [ [ 1.4145465, 43.5814302 ], [ 1.4149376, 43.5813224 ], [ 1.4150176, 43.5813003 ], [ 1.4150473, 43.5812949 ], [ 1.4150813, 43.5812973 ], [ 1.4152487, 43.5813371 ] ] } },
{ "type": "Feature", "properties": { "full_id": "w22779767", "osm_id": "22779767", "osm_type": "way", "highway": "residential", "sidewalk:both": null, "cycleway:both": null, "source:name:oc": null, "lanes": null, "oneway:bicycle": null, "oneway": null, "lit": null, "name:oc": null, "source:maxspeed": null, "junction": null, "surface": "asphalt", "political_division": null, "name": "Rue du Rhône", "maxspeed:type": null, "maxspeed": "30", "boundary": null }, "geometry": { "type": "LineString", "coordinates": [ [ 1.418023, 43.5800379 ], [ 1.4183161, 43.5799669 ], [ 1.4183981, 43.5799283 ], [ 1.4188346, 43.5798181 ], [ 1.4191895, 43.5797265 ], [ 1.4192754, 43.579685 ], [ 1.4197166, 43.5795691 ], [ 1.4198142, 43.5795568 ], [ 1.4198337, 43.5795585 ], [ 1.419893, 43.579563 ] ] } },
{ "type": "Feature", "properties": { "full_id": "w22779770", "osm_id": "22779770", "osm_type": "way", "highway": "residential", "sidewalk:both": null, "cycleway:both": null, "source:name:oc": null, "lanes": null, "oneway:bicycle": "no", "oneway": "yes", "lit": "yes", "name:oc": null, "source:maxspeed": "https://data.toulouse-metropole.fr/explore/dataset/zones-30/", "junction": null, "surface": "asphalt", "political_division": null, "name": "Rue du Cagire", "maxspeed:type": null, "maxspeed": "30", "boundary": null }, "geometry": { "type": "LineString", "coordinates": [ [ 1.4179688, 43.5794407 ], [ 1.4179521, 43.5794094 ], [ 1.4179385, 43.579386 ], [ 1.417688, 43.5789344 ], [ 1.4176982, 43.5788892 ], [ 1.4177288, 43.5788505 ], [ 1.4178112, 43.578813 ], [ 1.4178931, 43.5787693 ], [ 1.4179197, 43.5787192 ], [ 1.4176369, 43.5781844 ], [ 1.4172125, 43.5774094 ], [ 1.4172634, 43.5773322 ], [ 1.417724, 43.5771946 ], [ 1.4177723, 43.5772045 ], [ 1.4178186, 43.5772279 ], [ 1.4188586, 43.5791245 ], [ 1.4188734, 43.5791506 ], [ 1.4188878, 43.5791777 ] ] } },
{ "type": "Feature", "properties": { "full_id": "w27647817", "osm_id": "27647817", "osm_type": "way", "highway": "residential", "sidewalk:both": null, "cycleway:both": null, "source:name:oc": null, "lanes": null, "oneway:bicycle": null, "oneway": null, "lit": null, "name:oc": null, "source:maxspeed": "https://data.toulouse-metropole.fr/explore/dataset/zones-30/", "junction": null, "surface": "asphalt", "political_division": null, "name": "Rue Paul Lambert", "maxspeed:type": null, "maxspeed": "30", "boundary": null }, "geometry": { "type": "LineString", "coordinates": [ [ 1.4168881, 43.5787368 ], [ 1.4168923, 43.5786936 ], [ 1.4168849, 43.5786614 ], [ 1.4167961, 43.5784648 ], [ 1.4167724, 43.5783984 ], [ 1.4165074, 43.5779064 ], [ 1.4163034, 43.5775096 ], [ 1.4162536, 43.577449 ], [ 1.4161266, 43.5772796 ], [ 1.4160932, 43.5772506 ], [ 1.4160398, 43.5772345 ], [ 1.415998, 43.5772353 ], [ 1.4145411, 43.5776379 ], [ 1.4144949, 43.5776621 ], [ 1.4144713, 43.5776849 ], [ 1.4144605, 43.5777177 ], [ 1.4144595, 43.5777598 ], [ 1.4145049, 43.5778447 ], [ 1.414613, 43.578047 ], [ 1.4146128, 43.578085 ], [ 1.4145913, 43.5781128 ], [ 1.4145529, 43.5781382 ], [ 1.4142698, 43.5782154 ], [ 1.4140157, 43.5782863 ], [ 1.4133398, 43.5784787 ], [ 1.4132381, 43.5785078 ], [ 1.4131405, 43.5785357 ], [ 1.412037, 43.5788484 ], [ 1.4117356, 43.5789353 ], [ 1.4116777, 43.578952 ], [ 1.4113974, 43.5790298 ], [ 1.4113612, 43.5790414 ], [ 1.4112753, 43.5790824 ], [ 1.4112467, 43.5791039 ], [ 1.4111989, 43.5791544 ], [ 1.4111772, 43.5791779 ] ] } },
{ "type": "Feature", "properties": { "full_id": "w27647900", "osm_id": "27647900", "osm_type": "way", "highway": "residential", "sidewalk:both": null, "cycleway:both": null, "source:name:oc": null, "lanes": null, "oneway:bicycle": null, "oneway": null, "lit": null, "name:oc": null, "source:maxspeed": "https://data.toulouse-metropole.fr/explore/dataset/zones-30/", "junction": null, "surface": "asphalt", "political_division": null, "name": "Rue Rozes de Brousse", "maxspeed:type": null, "maxspeed": "30", "boundary": null }, "geometry": { "type": "LineString", "coordinates": [ [ 1.4131405, 43.5785357 ], [ 1.4132124, 43.5786557 ], [ 1.4132657, 43.5787576 ], [ 1.4133259, 43.5788726 ], [ 1.413382, 43.5789797 ], [ 1.4134138, 43.5790404 ], [ 1.4136372, 43.5794556 ], [ 1.4136669, 43.5795108 ], [ 1.4136957, 43.5795457 ] ] } },
{ "type": "Feature", "properties": { "full_id": "w27647920", "osm_id": "27647920", "osm_type": "way", "highway": "residential", "sidewalk:both": null, "cycleway:both": null, "source:name:oc": null, "lanes": "2", "oneway:bicycle": null, "oneway": null, "lit": null, "name:oc": "Carrièra de l'Ucraïna", "source:maxspeed": "https://data.toulouse-metropole.fr/explore/dataset/zones-30/", "junction": null, "surface": "asphalt", "political_division": null, "name": "Rue de l'Ukraine", "maxspeed:type": null, "maxspeed": "30", "boundary": null }, "geometry": { "type": "LineString", "coordinates": [ [ 1.4136788, 43.5796345 ], [ 1.4136319, 43.5796639 ], [ 1.4135553, 43.5796906 ], [ 1.4130046, 43.5798526 ], [ 1.4125417, 43.5799778 ], [ 1.4124928, 43.5799924 ], [ 1.4124563, 43.5800033 ], [ 1.4123429, 43.580045 ], [ 1.4122772, 43.580074 ] ] } },
{ "type": "Feature", "properties": { "full_id": "w27647922", "osm_id": "27647922", "osm_type": "way", "highway": "residential", "sidewalk:both": null, "cycleway:both": null, "source:name:oc": null, "lanes": null, "oneway:bicycle": null, "oneway": null, "lit": null, "name:oc": "Carrièra de l'Ucraïna", "source:maxspeed": "https://data.toulouse-metropole.fr/explore/dataset/zones-30/", "junction": "roundabout", "surface": "asphalt", "political_division": null, "name": "Rue de l'Ukraine", "maxspeed:type": null, "maxspeed": "30", "boundary": null }, "geometry": { "type": "LineString", "coordinates": [ [ 1.4136788, 43.5796345 ], [ 1.4136628, 43.5796123 ], [ 1.4136605, 43.5795874 ], [ 1.4136721, 43.5795639 ], [ 1.4136957, 43.5795457 ], [ 1.4137338, 43.5795351 ], [ 1.4137743, 43.5795388 ], [ 1.4138077, 43.5795558 ], [ 1.4138262, 43.5795821 ], [ 1.4138263, 43.5796092 ], [ 1.4138102, 43.5796336 ], [ 1.4137811, 43.5796506 ], [ 1.4137448, 43.5796568 ], [ 1.4137083, 43.5796511 ], [ 1.4136788, 43.5796345 ] ] } },
{ "type": "Feature", "properties": { "full_id": "w35445047", "osm_id": "35445047", "osm_type": "way", "highway": "residential", "sidewalk:both": null, "cycleway:both": null, "source:name:oc": null, "lanes": null, "oneway:bicycle": null, "oneway": null, "lit": null, "name:oc": null, "source:maxspeed": "https://data.toulouse-metropole.fr/explore/dataset/zones-30/", "junction": null, "surface": "asphalt", "political_division": null, "name": "Rue Aristide Bergès", "maxspeed:type": null, "maxspeed": "30", "boundary": null }, "geometry": { "type": "LineString", "coordinates": [ [ 1.4149992, 43.5822594 ], [ 1.4149064, 43.5822947 ], [ 1.4148331, 43.5823225 ], [ 1.4145572, 43.5824028 ], [ 1.4144095, 43.5824458 ], [ 1.4143821, 43.5824551 ], [ 1.4143523, 43.5824667 ], [ 1.4143038, 43.5824835 ] ] } },
{ "type": "Feature", "properties": { "full_id": "w61128037", "osm_id": "61128037", "osm_type": "way", "highway": "residential", "sidewalk:both": null, "cycleway:both": null, "source:name:oc": null, "lanes": null, "oneway:bicycle": null, "oneway": null, "lit": null, "name:oc": null, "source:maxspeed": null, "junction": null, "surface": null, "political_division": null, "name": "Impasse Paul Lambert", "maxspeed:type": null, "maxspeed": null, "boundary": null }, "geometry": { "type": "LineString", "coordinates": [ [ 1.4132381, 43.5785078 ], [ 1.4131934, 43.5784272 ], [ 1.4130999, 43.5782652 ], [ 1.4129227, 43.578311 ], [ 1.4124441, 43.5784463 ], [ 1.412099, 43.578544 ], [ 1.4120224, 43.5785413 ], [ 1.4117757, 43.5784569 ], [ 1.4116522, 43.5783717 ] ] } },
{ "type": "Feature", "properties": { "full_id": "w116935788", "osm_id": "116935788", "osm_type": "way", "highway": "residential", "sidewalk:both": null, "cycleway:both": null, "source:name:oc": "Données Toulouse Métropole", "lanes": null, "oneway:bicycle": null, "oneway": null, "lit": null, "name:oc": "Carrièra Ammar Boutalba", "source:maxspeed": "https://data.toulouse-metropole.fr/explore/dataset/zones-30/", "junction": null, "surface": null, "political_division": null, "name": "Rue Ammar Boutalba", "maxspeed:type": null, "maxspeed": "30", "boundary": null }, "geometry": { "type": "LineString", "coordinates": [ [ 1.412236, 43.5807971 ], [ 1.4123279, 43.5807553 ], [ 1.4126793, 43.5805955 ], [ 1.4127048, 43.580584 ], [ 1.4127276, 43.5805736 ], [ 1.4127865, 43.5805468 ] ] } },
{ "type": "Feature", "properties": { "full_id": "w123981634", "osm_id": "123981634", "osm_type": "way", "highway": "residential", "sidewalk:both": null, "cycleway:both": "no", "source:name:oc": null, "lanes": null, "oneway:bicycle": null, "oneway": null, "lit": null, "name:oc": null, "source:maxspeed": "https://data.toulouse-metropole.fr/explore/dataset/zones-30/", "junction": null, "surface": "asphalt", "political_division": "canton", "name": "Rue Jean Mermoz", "maxspeed:type": null, "maxspeed": "30", "boundary": "political" }, "geometry": { "type": "LineString", "coordinates": [ [ 1.4179381, 43.5825738 ], [ 1.4178011, 43.5826168 ], [ 1.4173021, 43.5827567 ], [ 1.4168231, 43.5829147 ] ] } },
{ "type": "Feature", "properties": { "full_id": "w219771614", "osm_id": "219771614", "osm_type": "way", "highway": "residential", "sidewalk:both": null, "cycleway:both": null, "source:name:oc": null, "lanes": null, "oneway:bicycle": null, "oneway": null, "lit": null, "name:oc": null, "source:maxspeed": null, "junction": null, "surface": "asphalt", "political_division": null, "name": "Rue de la Corse", "maxspeed:type": null, "maxspeed": "30", "boundary": null }, "geometry": { "type": "LineString", "coordinates": [ [ 1.4177924, 43.5794898 ], [ 1.4178011, 43.5795142 ], [ 1.4178119, 43.5795383 ], [ 1.418023, 43.5800379 ], [ 1.4186633, 43.5816101 ], [ 1.4186874, 43.5816611 ], [ 1.4187182, 43.5816922 ], [ 1.4187531, 43.5817116 ], [ 1.4188213, 43.5817319 ], [ 1.4188644, 43.5817456 ], [ 1.418904, 43.5817562 ] ] } },
{ "type": "Feature", "properties": { "full_id": "w287633582", "osm_id": "287633582", "osm_type": "way", "highway": "residential", "sidewalk:both": null, "cycleway:both": null, "source:name:oc": null, "lanes": null, "oneway:bicycle": null, "oneway": null, "lit": null, "name:oc": null, "source:maxspeed": null, "junction": null, "surface": null, "political_division": null, "name": "Rue de Saintonge", "maxspeed:type": null, "maxspeed": "30", "boundary": null }, "geometry": { "type": "LineString", "coordinates": [ [ 1.409347, 43.5828571 ], [ 1.4094419, 43.5828313 ], [ 1.4097381, 43.5827554 ], [ 1.4097835, 43.5827424 ], [ 1.4098594, 43.5827199 ], [ 1.4100457, 43.5826488 ], [ 1.4103424, 43.5825344 ], [ 1.4121615, 43.5818151 ], [ 1.4130541, 43.58146 ], [ 1.4132318, 43.5813862 ], [ 1.4132754, 43.5813701 ], [ 1.4133087, 43.5813559 ], [ 1.4133404, 43.5813424 ], [ 1.4133949, 43.5813138 ], [ 1.4134357, 43.5812905 ] ] } },
{ "type": "Feature", "properties": { "full_id": "w854276022", "osm_id": "854276022", "osm_type": "way", "highway": "residential", "sidewalk:both": null, "cycleway:both": null, "source:name:oc": null, "lanes": null, "oneway:bicycle": null, "oneway": null, "lit": null, "name:oc": null, "source:maxspeed": "https://data.toulouse-metropole.fr/explore/dataset/zones-30/", "junction": null, "surface": null, "political_division": null, "name": "Rue Jules Amilhau", "maxspeed:type": null, "maxspeed": "30", "boundary": null }, "geometry": { "type": "LineString", "coordinates": [ [ 1.4149992, 43.5822594 ], [ 1.4150954, 43.5822807 ], [ 1.4151475, 43.5822923 ], [ 1.415385, 43.5823617 ], [ 1.4162601, 43.5826581 ], [ 1.4163914, 43.5826972 ], [ 1.4165532, 43.5827361 ], [ 1.4166828, 43.5827829 ], [ 1.4167627, 43.582842 ], [ 1.4167936, 43.5828792 ], [ 1.4168231, 43.5829147 ] ] } },
{ "type": "Feature", "properties": { "full_id": "w1216334049", "osm_id": "1216334049", "osm_type": "way", "highway": "residential", "sidewalk:both": "separate", "cycleway:both": null, "source:name:oc": null, "lanes": "2", "oneway:bicycle": null, "oneway": null, "lit": null, "name:oc": "Carrièra Henri Desbals", "source:maxspeed": "https://data.toulouse-metropole.fr/explore/dataset/zones-30/", "junction": null, "surface": "asphalt", "political_division": "canton", "name": "Rue Henri Desbals", "maxspeed:type": null, "maxspeed": "30", "boundary": "political" }, "geometry": { "type": "LineString", "coordinates": [ [ 1.4149597, 43.5834371 ], [ 1.4149115, 43.5833534 ], [ 1.4148247, 43.5832359 ], [ 1.4147741, 43.5831616 ], [ 1.4147578, 43.5831389 ], [ 1.4147509, 43.5831292 ], [ 1.4147371, 43.5831093 ], [ 1.4143038, 43.5824835 ], [ 1.4142439, 43.5824008 ], [ 1.4142224, 43.5823733 ], [ 1.4140573, 43.5821439 ], [ 1.4137887, 43.5817602 ] ] } },
{ "type": "Feature", "properties": { "full_id": "w1232042784", "osm_id": "1232042784", "osm_type": "way", "highway": "residential", "sidewalk:both": null, "cycleway:both": null, "source:name:oc": null, "lanes": null, "oneway:bicycle": null, "oneway": "yes", "lit": null, "name:oc": null, "source:maxspeed": "https://data.toulouse-metropole.fr/explore/dataset/zones-30/", "junction": null, "surface": "asphalt", "political_division": null, "name": "Rue Jean Mermoz", "maxspeed:type": null, "maxspeed": "30", "boundary": null }, "geometry": { "type": "LineString", "coordinates": [ [ 1.4183851, 43.5824961 ], [ 1.4183132, 43.5825053 ], [ 1.4181551, 43.5825339 ], [ 1.4179381, 43.5825738 ] ] } },
{ "type": "Feature", "properties": { "full_id": "w1232042785", "osm_id": "1232042785", "osm_type": "way", "highway": "residential", "sidewalk:both": null, "cycleway:both": null, "source:name:oc": null, "lanes": null, "oneway:bicycle": null, "oneway": "yes", "lit": null, "name:oc": null, "source:maxspeed": "https://data.toulouse-metropole.fr/explore/dataset/zones-30/", "junction": null, "surface": "asphalt", "political_division": null, "name": "Rue Jean Mermoz", "maxspeed:type": null, "maxspeed": "30", "boundary": null }, "geometry": { "type": "LineString", "coordinates": [ [ 1.4179381, 43.5825738 ], [ 1.4181362, 43.5824949 ], [ 1.4182701, 43.5824383 ], [ 1.4183255, 43.5824022 ] ] } },
{ "type": "Feature", "properties": { "full_id": "w1527292345", "osm_id": "1527292345", "osm_type": "way", "highway": "residential", "sidewalk:both": null, "cycleway:both": null, "source:name:oc": null, "lanes": null, "oneway:bicycle": null, "oneway": null, "lit": null, "name:oc": null, "source:maxspeed": null, "junction": null, "surface": null, "political_division": null, "name": null, "maxspeed:type": null, "maxspeed": null, "boundary": null }, "geometry": { "type": "LineString", "coordinates": [ [ 1.4167961, 43.5784648 ], [ 1.4170243, 43.5784143 ], [ 1.4170784, 43.5783899 ], [ 1.4171034, 43.5783539 ], [ 1.417072, 43.5782795 ], [ 1.4170425, 43.5781928 ], [ 1.417005, 43.5779472 ] ] } }
]
}
