{
"type": "FeatureCollection",
"name": "highway cycleway_bagatelle",
"crs": { "type": "name", "properties": { "name": "urn:ogc:def:crs:OGC:1.3:CRS84" } },
"features": [
{ "type": "Feature", "properties": { "full_id": "w35445048", "osm_id": "35445048", "osm_type": "way", "highway": "cycleway", "cycleway": null, "footway:surface": null, "cycleway:surface": null, "segregated": null, "foot": null, "oneway": null, "name": null, "surface": "asphalt" }, "geometry": { "type": "LineString", "coordinates": [ [ 1.4143038, 43.5824835 ], [ 1.4143497, 43.5824116 ] ] } },
{ "type": "Feature", "properties": { "full_id": "w117081909", "osm_id": "117081909", "osm_type": "way", "highway": "cycleway", "cycleway": null, "footway:surface": null, "cycleway:surface": null, "segregated": null, "foot": null, "oneway": "yes", "name": "Rue de Saintonge", "surface": "asphalt" }, "geometry": { "type": "LineString", "coordinates": [ [ 1.4075703, 43.5837928 ], [ 1.4075398, 43.583722 ], [ 1.4078618, 43.5832171 ], [ 1.4078777, 43.5831993 ], [ 1.4079032, 43.5831846 ], [ 1.4079331, 43.5831738 ], [ 1.4081195, 43.583129 ], [ 1.4082121, 43.5831088 ], [ 1.4082965, 43.5830973 ], [ 1.4084319, 43.5830615 ], [ 1.408621, 43.5830115 ], [ 1.4091254, 43.582878 ], [ 1.4091564, 43.582867 ], [ 1.4092108, 43.5828455 ], [ 1.4092812, 43.5828203 ], [ 1.4094189, 43.5827836 ], [ 1.4097599, 43.5826913 ], [ 1.4098019, 43.58268 ], [ 1.410016, 43.5826014 ], [ 1.4102234, 43.5825225 ], [ 1.4103175, 43.5824807 ], [ 1.4121277, 43.581771 ], [ 1.4129857, 43.5814362 ], [ 1.4130541, 43.58146 ] ] } },
{ "type": "Feature", "properties": { "full_id": "w134379317", "osm_id": "134379317", "osm_type": "way", "highway": "cycleway", "cycleway": null, "footway:surface": null, "cycleway:surface": null, "segregated": "yes", "foot": "designated", "oneway": "yes", "name": null, "surface": null }, "geometry": { "type": "LineString", "coordinates": [ [ 1.4139586, 43.5821555 ], [ 1.4137005, 43.5817937 ], [ 1.4136301, 43.5817033 ], [ 1.4134661, 43.5814763 ], [ 1.4134149, 43.5814185 ], [ 1.4133832, 43.5813856 ], [ 1.4133404, 43.5813424 ], [ 1.4133062, 43.5813065 ], [ 1.4132672, 43.581258 ], [ 1.4126793, 43.5805955 ], [ 1.4126556, 43.5805642 ], [ 1.412381, 43.5802735 ], [ 1.412322, 43.580204 ] ] } },
{ "type": "Feature", "properties": { "full_id": "w224660184", "osm_id": "224660184", "osm_type": "way", "highway": "cycleway", "cycleway": null, "footway:surface": "asphalt", "cycleway:surface": "asphalt", "segregated": "yes", "foot": "designated", "oneway": "yes", "name": null, "surface": "asphalt" }, "geometry": { "type": "LineString", "coordinates": [ [ 1.4147639, 43.5832594 ], [ 1.4147058, 43.5831865 ], [ 1.4146587, 43.5831275 ], [ 1.4144066, 43.5827734 ], [ 1.4142551, 43.5825709 ], [ 1.4141556, 43.5824308 ], [ 1.4141357, 43.5824028 ], [ 1.4139586, 43.5821555 ] ] } },
{ "type": "Feature", "properties": { "full_id": "w854276020", "osm_id": "854276020", "osm_type": "way", "highway": "cycleway", "cycleway": null, "footway:surface": "asphalt", "cycleway:surface": "asphalt", "segregated": "yes", "foot": "designated", "oneway": "yes", "name": null, "surface": "asphalt" }, "geometry": { "type": "LineString", "coordinates": [ [ 1.4143497, 43.5824116 ], [ 1.4143821, 43.5824551 ], [ 1.4148173, 43.5830644 ], [ 1.41482, 43.583086 ], [ 1.4148062, 43.5831076 ], [ 1.4147509, 43.5831292 ] ] } },
{ "type": "Feature", "properties": { "full_id": "w854276021", "osm_id": "854276021", "osm_type": "way", "highway": "cycleway", "cycleway": null, "footway:surface": null, "cycleway:surface": null, "segregated": null, "foot": null, "oneway": null, "name": null, "surface": null }, "geometry": { "type": "LineString", "coordinates": [ [ 1.4143497, 43.5824116 ], [ 1.4143739, 43.5824043 ], [ 1.4145276, 43.5823583 ], [ 1.4146085, 43.5823341 ], [ 1.4149127, 43.5822431 ], [ 1.4149992, 43.5822594 ] ] } },
{ "type": "Feature", "properties": { "full_id": "w854288147", "osm_id": "854288147", "osm_type": "way", "highway": "cycleway", "cycleway": null, "footway:surface": null, "cycleway:surface": null, "segregated": "yes", "foot": "designated", "oneway": "yes", "name": null, "surface": null }, "geometry": { "type": "LineString", "coordinates": [ [ 1.4125123, 43.5801249 ], [ 1.4125324, 43.5801835 ], [ 1.4130877, 43.5808101 ], [ 1.4134277, 43.5811853 ], [ 1.4134889, 43.5812529 ], [ 1.4135657, 43.5813434 ], [ 1.4137226, 43.5815451 ], [ 1.413857, 43.5817343 ], [ 1.4141338, 43.5821197 ], [ 1.4143014, 43.5823464 ], [ 1.4143221, 43.5823743 ], [ 1.4143497, 43.5824116 ] ] } },
{ "type": "Feature", "properties": { "full_id": "w1216334041", "osm_id": "1216334041", "osm_type": "way", "highway": "cycleway", "cycleway": "crossing", "footway:surface": null, "cycleway:surface": null, "segregated": null, "foot": null, "oneway": null, "name": null, "surface": "asphalt" }, "geometry": { "type": "LineString", "coordinates": [ [ 1.4141556, 43.5824308 ], [ 1.4142439, 43.5824008 ], [ 1.4143221, 43.5823743 ] ] } }
]
}
