{
"type": "FeatureCollection",
"name": "parkings_bagatelle",
"crs": { "type": "name", "properties": { "name": "urn:ogc:def:crs:OGC:1.3:CRS84" } },
"features": [
{ "type": "Feature", "properties": { "full_id": "w32595249", "osm_id": "32595249", "osm_type": "way", "amenity": "parking", "parking": "surface", "name:oc": "Plaça Geneviève Anthonioz De Gaulle", "name": "Place Geneviève Anthonioz De Gaulle", "fee": "no", "access": "yes" }, "geometry": { "type": "MultiPolygon", "coordinates": [ [ [ [ 1.4137949, 43.5815331 ], [ 1.4141001, 43.5814514 ], [ 1.4141606, 43.5814351 ], [ 1.4141461, 43.5814068 ], [ 1.4141306, 43.5813764 ], [ 1.4139717, 43.5810652 ], [ 1.413606, 43.5811632 ], [ 1.4136369, 43.5812238 ], [ 1.4136518, 43.581253 ], [ 1.4137651, 43.5814749 ], [ 1.4137807, 43.5815053 ], [ 1.4137949, 43.5815331 ] ] ] ] } },
{ "type": "Feature", "properties": { "full_id": "w52305063", "osm_id": "52305063", "osm_type": "way", "amenity": "parking", "parking": "surface", "name:oc": null, "name": null, "fee": null, "access": null }, "geometry": { "type": "MultiPolygon", "coordinates": [ [ [ [ 1.4157823, 43.5822562 ], [ 1.415742, 43.5821782 ], [ 1.4155284, 43.5817369 ], [ 1.4155794, 43.5816587 ], [ 1.4158, 43.5815921 ], [ 1.4159053, 43.5816455 ], [ 1.4160508, 43.5819579 ], [ 1.4163971, 43.5818549 ], [ 1.4164819, 43.5820192 ], [ 1.4165034, 43.5820609 ], [ 1.4162422, 43.5821316 ], [ 1.4157823, 43.5822562 ] ] ] ] } },
{ "type": "Feature", "properties": { "full_id": "w76209071", "osm_id": "76209071", "osm_type": "way", "amenity": "parking", "parking": "surface", "name:oc": null, "name": null, "fee": null, "access": "destination" }, "geometry": { "type": "MultiPolygon", "coordinates": [ [ [ [ 1.4172178, 43.5796016 ], [ 1.4171936, 43.5795723 ], [ 1.4171864, 43.5795554 ], [ 1.4172009, 43.5795324 ], [ 1.417258, 43.5795258 ], [ 1.4171668, 43.5793655 ], [ 1.4170923, 43.5792096 ], [ 1.4169708, 43.5789809 ], [ 1.4169135, 43.5789048 ], [ 1.4169001, 43.5789164 ], [ 1.4168865, 43.5789283 ], [ 1.4168412, 43.5788836 ], [ 1.4168093, 43.578872 ], [ 1.416763, 43.5788651 ], [ 1.4166297, 43.5788827 ], [ 1.4164964, 43.5789085 ], [ 1.4169101, 43.5796877 ], [ 1.4172178, 43.5796016 ] ] ] ] } },
{ "type": "Feature", "properties": { "full_id": "w93330744", "osm_id": "93330744", "osm_type": "way", "amenity": "parking", "parking": "surface", "name:oc": null, "name": null, "fee": null, "access": "destination" }, "geometry": { "type": "MultiPolygon", "coordinates": [ [ [ [ 1.4163892, 43.5803976 ], [ 1.4166443, 43.5804783 ], [ 1.4167157, 43.5804961 ], [ 1.4167709, 43.580484 ], [ 1.4167638, 43.5804696 ], [ 1.4162689, 43.5794616 ], [ 1.4160519, 43.5795214 ], [ 1.4160097, 43.5796117 ], [ 1.4163892, 43.5803976 ] ] ] ] } },
{ "type": "Feature", "properties": { "full_id": "w93362576", "osm_id": "93362576", "osm_type": "way", "amenity": "parking", "parking": null, "name:oc": null, "name": null, "fee": null, "access": null }, "geometry": { "type": "MultiPolygon", "coordinates": [ [ [ [ 1.4149079, 43.5809917 ], [ 1.414795, 43.5807791 ], [ 1.4146955, 43.5805915 ], [ 1.4142765, 43.580708 ], [ 1.4144781, 43.5811064 ], [ 1.4149079, 43.5809917 ] ] ] ] } },
{ "type": "Feature", "properties": { "full_id": "w93394495", "osm_id": "93394495", "osm_type": "way", "amenity": "parking", "parking": null, "name:oc": null, "name": null, "fee": null, "access": null }, "geometry": { "type": "MultiPolygon", "coordinates": [ [ [ [ 1.4132529, 43.5783441 ], [ 1.4129593, 43.5777871 ], [ 1.4126011, 43.5779115 ], [ 1.4127946, 43.578283 ], [ 1.4131172, 43.578195 ], [ 1.4132064, 43.5783525 ], [ 1.4132529, 43.5783441 ] ] ] ] } },
{ "type": "Feature", "properties": { "full_id": "w93397697", "osm_id": "93397697", "osm_type": "way", "amenity": "parking", "parking": null, "name:oc": null, "name": null, "fee": null, "access": "yes" }, "geometry": { "type": "MultiPolygon", "coordinates": [ [ [ [ 1.4144236, 43.579154 ], [ 1.4136862, 43.5793585 ], [ 1.4137542, 43.5794933 ], [ 1.41449, 43.5792909 ], [ 1.4144236, 43.579154 ] ] ] ] } },
{ "type": "Feature", "properties": { "full_id": "w93397699", "osm_id": "93397699", "osm_type": "way", "amenity": "parking", "parking": "surface", "name:oc": null, "name": null, "fee": null, "access": "yes" }, "geometry": { "type": "MultiPolygon", "coordinates": [ [ [ [ 1.4157124, 43.578613 ], [ 1.4152366, 43.578757 ], [ 1.4153612, 43.5789871 ], [ 1.41542, 43.5789728 ], [ 1.4154027, 43.5789978 ], [ 1.41538, 43.5790147 ], [ 1.4153547, 43.5790235 ], [ 1.4153335, 43.5789829 ], [ 1.4148562, 43.5791028 ], [ 1.4149324, 43.5792473 ], [ 1.4153965, 43.5791159 ], [ 1.415375, 43.5790719 ], [ 1.4154118, 43.5790588 ], [ 1.4154359, 43.5790398 ], [ 1.4154582, 43.5790165 ], [ 1.4154823, 43.5789961 ], [ 1.4155248, 43.5789903 ], [ 1.4155641, 43.5789937 ], [ 1.4156067, 43.5789821 ], [ 1.4156297, 43.5789674 ], [ 1.4156508, 43.5789519 ], [ 1.4156707, 43.5789429 ], [ 1.4157252, 43.5789279 ], [ 1.4157358, 43.578938 ], [ 1.4156783, 43.5789559 ], [ 1.4157113, 43.5790114 ], [ 1.4158948, 43.5789616 ], [ 1.4157124, 43.578613 ] ] ] ] } },
{ "type": "Feature", "properties": { "full_id": "w178168185", "osm_id": "178168185", "osm_type": "way", "amenity": "parking", "parking": "street_side", "name:oc": null, "name": null, "fee": null, "access": null }, "geometry": { "type": "MultiPolygon", "coordinates": [ [ [ [ 1.4131825, 43.5798738 ], [ 1.4131617, 43.5798323 ], [ 1.4132954, 43.5797946 ], [ 1.4135405, 43.5797255 ], [ 1.413562, 43.5797668 ], [ 1.413317, 43.5798358 ], [ 1.4131825, 43.5798738 ] ] ] ] } },
{ "type": "Feature", "properties": { "full_id": "w197718959", "osm_id": "197718959", "osm_type": "way", "amenity": "parking", "parking": "surface", "name:oc": null, "name": null, "fee": "no", "access": "yes" }, "geometry": { "type": "MultiPolygon", "coordinates": [ [ [ [ 1.4121947, 43.5792117 ], [ 1.4117503, 43.5789887 ], [ 1.4117578, 43.5789589 ], [ 1.4130395, 43.5785952 ], [ 1.4130941, 43.5785929 ], [ 1.4131324, 43.5786093 ], [ 1.4131623, 43.5786444 ], [ 1.4136039, 43.5794825 ], [ 1.4134973, 43.5795107 ], [ 1.4133964, 43.5793359 ], [ 1.4133129, 43.579289 ], [ 1.4131619, 43.5792315 ], [ 1.4131332, 43.5792249 ], [ 1.4130116, 43.5791969 ], [ 1.4129047, 43.5791664 ], [ 1.4127911, 43.5791138 ], [ 1.4127319, 43.5790967 ], [ 1.4126986, 43.579087 ], [ 1.4126383, 43.5790809 ], [ 1.4121947, 43.5792117 ] ] ] ] } },
{ "type": "Feature", "properties": { "full_id": "w476962222", "osm_id": "476962222", "osm_type": "way", "amenity": "parking", "parking": "surface", "name:oc": null, "name": null, "fee": "no", "access": "yes" }, "geometry": { "type": "MultiPolygon", "coordinates": [ [ [ [ 1.4129276, 43.5796485 ], [ 1.4130007, 43.5797768 ], [ 1.4129728, 43.5797845 ], [ 1.4125029, 43.5799146 ], [ 1.4124689, 43.579924 ], [ 1.412426, 43.5798783 ], [ 1.4123771, 43.5797986 ], [ 1.4129276, 43.5796485 ] ] ] ] } },
{ "type": "Feature", "properties": { "full_id": "w548237439", "osm_id": "548237439", "osm_type": "way", "amenity": "parking", "parking": null, "name:oc": null, "name": null, "fee": null, "access": "private" }, "geometry": { "type": "MultiPolygon", "coordinates": [ [ [ [ 1.4175904, 43.5824388 ], [ 1.4173624, 43.5825 ], [ 1.4173852, 43.5825442 ], [ 1.4169326, 43.5826685 ], [ 1.4169145, 43.58267 ], [ 1.416891, 43.5826671 ], [ 1.4162976, 43.5824776 ], [ 1.4162453, 43.5825631 ], [ 1.4167964, 43.5827448 ], [ 1.4168441, 43.5827559 ], [ 1.4168964, 43.5827647 ], [ 1.4169386, 43.5827652 ], [ 1.417003, 43.5827564 ], [ 1.4176863, 43.582566 ], [ 1.4176662, 43.5825257 ], [ 1.4178251, 43.5824844 ], [ 1.4178418, 43.5825194 ], [ 1.417988, 43.5824796 ], [ 1.4179625, 43.5824378 ], [ 1.4180236, 43.5824222 ], [ 1.4178311, 43.5820725 ], [ 1.4177714, 43.582089 ], [ 1.4177413, 43.5820317 ], [ 1.4175025, 43.581953 ], [ 1.4173805, 43.5819831 ], [ 1.4173557, 43.5819375 ], [ 1.4170526, 43.5820205 ], [ 1.4170776, 43.5820705 ], [ 1.4167341, 43.5821672 ], [ 1.416775, 43.5822469 ], [ 1.4169554, 43.5823028 ], [ 1.4171673, 43.5822498 ], [ 1.4171247, 43.5821647 ], [ 1.4174134, 43.5820876 ], [ 1.4175904, 43.5824388 ] ] ] ] } },
{ "type": "Feature", "properties": { "full_id": "w548237440", "osm_id": "548237440", "osm_type": "way", "amenity": "parking", "parking": null, "name:oc": null, "name": null, "fee": null, "access": "private" }, "geometry": { "type": "MultiPolygon", "coordinates": [ [ [ [ 1.4159917, 43.5822709 ], [ 1.4162845, 43.5823653 ], [ 1.4163385, 43.5822773 ], [ 1.4168537, 43.5824433 ], [ 1.4169064, 43.5823575 ], [ 1.4168421, 43.5823368 ], [ 1.416869, 43.582293 ], [ 1.4164138, 43.5821463 ], [ 1.4163572, 43.5822383 ], [ 1.4161352, 43.5821668 ], [ 1.4161091, 43.5822094 ], [ 1.4160426, 43.582188 ], [ 1.4159917, 43.5822709 ] ] ] ] } },
{ "type": "Feature", "properties": { "full_id": "w642248629", "osm_id": "642248629", "osm_type": "way", "amenity": "parking", "parking": "surface", "name:oc": null, "name": null, "fee": null, "access": null }, "geometry": { "type": "MultiPolygon", "coordinates": [ [ [ [ 1.4144946, 43.5820554 ], [ 1.4142061, 43.5821371 ], [ 1.4143603, 43.5823591 ], [ 1.4144086, 43.5823649 ], [ 1.414623, 43.5822999 ], [ 1.4144946, 43.5820554 ] ] ] ] } },
{ "type": "Feature", "properties": { "full_id": "w1101663524", "osm_id": "1101663524", "osm_type": "way", "amenity": "parking", "parking": null, "name:oc": null, "name": null, "fee": null, "access": null }, "geometry": { "type": "MultiPolygon", "coordinates": [ [ [ [ 1.4129047, 43.5799055 ], [ 1.4125399, 43.5800102 ], [ 1.4125612, 43.5800493 ], [ 1.4129261, 43.5799446 ], [ 1.4129047, 43.5799055 ] ] ] ] } },
{ "type": "Feature", "properties": { "full_id": "w1155344504", "osm_id": "1155344504", "osm_type": "way", "amenity": "parking", "parking": "surface", "name:oc": null, "name": null, "fee": null, "access": null }, "geometry": { "type": "MultiPolygon", "coordinates": [ [ [ [ 1.4134517, 43.5818072 ], [ 1.4132721, 43.5815592 ], [ 1.4134425, 43.5814944 ], [ 1.4136222, 43.5817424 ], [ 1.4134517, 43.5818072 ] ] ] ] } }
]
}
